{"fetched_at":"2026-07-07T18:29:33.473Z","source":"https://celestrak.org/NORAD/elements/gp.php?NAME=JILIN&FORMAT=JSON","constellation":"jilin-1-gaofen","records":[{"OBJECT_NAME":"JILIN-1 GAOFEN 3A","OBJECT_ID":"2019-032C","EPOCH":"2026-07-07T11:35:38.860224","CLASSIFICATION_TYPE":"U","MEAN_MOTION":15.33088366,"ECCENTRICITY":0.0004743,"INCLINATION":44.9744,"RA_OF_ASC_NODE":245.2004,"ARG_OF_PERICENTER":48.8388,"MEAN_ANOMALY":311.2906,"EPHEMERIS_TYPE":0,"NORAD_CAT_ID":44312,"ELEMENT_SET_NO":999,"REV_AT_EPOCH":39095,"BSTAR":0.00023095,"MEAN_MOTION_DOT":0.00007222,"MEAN_MOTION_DDOT":0},{"OBJECT_NAME":"JILIN-1 GAOFEN 2A","OBJECT_ID":"2019-075A","EPOCH":"2026-07-07T11:29:06.612000","CLASSIFICATION_TYPE":"U","MEAN_MOTION":15.39870856,"ECCENTRICITY":0.0005948,"INCLINATION":97.4957,"RA_OF_ASC_NODE":272.7498,"ARG_OF_PERICENTER":23.4498,"MEAN_ANOMALY":336.7018,"EPHEMERIS_TYPE":0,"NORAD_CAT_ID":44777,"ELEMENT_SET_NO":999,"REV_AT_EPOCH":36800,"BSTAR":0.00024591,"MEAN_MOTION_DOT":0.0000969,"MEAN_MOTION_DDOT":0},{"OBJECT_NAME":"JILIN-1 GAOFEN 2B","OBJECT_ID":"2019-086A","EPOCH":"2026-07-07T11:28:34.890240","CLASSIFICATION_TYPE":"U","MEAN_MOTION":15.20942232,"ECCENTRICITY":0.001267,"INCLINATION":97.4871,"RA_OF_ASC_NODE":260.3439,"ARG_OF_PERICENTER":244.9573,"MEAN_ANOMALY":115.0347,"EPHEMERIS_TYPE":0,"NORAD_CAT_ID":44836,"ELEMENT_SET_NO":999,"REV_AT_EPOCH":36357,"BSTAR":0.00020475,"MEAN_MOTION_DOT":0.00004471,"MEAN_MOTION_DDOT":0},{"OBJECT_NAME":"JILIN-1 GAOFEN 3E","OBJECT_ID":"2020-065D","EPOCH":"2026-07-07T11:48:50.285088","CLASSIFICATION_TYPE":"U","MEAN_MOTION":15.66383825,"ECCENTRICITY":0.0011395,"INCLINATION":97.2219,"RA_OF_ASC_NODE":241.6053,"ARG_OF_PERICENTER":95.9891,"MEAN_ANOMALY":264.2668,"EPHEMERIS_TYPE":0,"NORAD_CAT_ID":46457,"ELEMENT_SET_NO":999,"REV_AT_EPOCH":32293,"BSTAR":0.00055056,"MEAN_MOTION_DOT":0.00057399,"MEAN_MOTION_DDOT":0},{"OBJECT_NAME":"JILIN-1 GAOFEN 3F","OBJECT_ID":"2020-065E","EPOCH":"2026-07-07T11:47:04.579008","CLASSIFICATION_TYPE":"U","MEAN_MOTION":15.63243961,"ECCENTRICITY":0.0012811,"INCLINATION":97.2176,"RA_OF_ASC_NODE":238.8369,"ARG_OF_PERICENTER":83.3563,"MEAN_ANOMALY":276.9153,"EPHEMERIS_TYPE":0,"NORAD_CAT_ID":46458,"ELEMENT_SET_NO":999,"REV_AT_EPOCH":32287,"BSTAR":0.00051588,"MEAN_MOTION_DOT":0.00047476,"MEAN_MOTION_DDOT":0},{"OBJECT_NAME":"JILIN-1 GAOFEN 3G","OBJECT_ID":"2020-065F","EPOCH":"2026-07-07T12:03:20.894688","CLASSIFICATION_TYPE":"U","MEAN_MOTION":15.75498564,"ECCENTRICITY":0.0004743,"INCLINATION":97.2232,"RA_OF_ASC_NODE":246.0173,"ARG_OF_PERICENTER":319.3212,"MEAN_ANOMALY":40.7699,"EPHEMERIS_TYPE":0,"NORAD_CAT_ID":46459,"ELEMENT_SET_NO":999,"REV_AT_EPOCH":32313,"BSTAR":0.00060325,"MEAN_MOTION_DOT":0.00092097,"MEAN_MOTION_DDOT":0},{"OBJECT_NAME":"JILIN-1 GAOFEN 3H","OBJECT_ID":"2020-065G","EPOCH":"2026-07-07T12:34:19.382016","CLASSIFICATION_TYPE":"U","MEAN_MOTION":15.71172052,"ECCENTRICITY":0.0005223,"INCLINATION":97.2185,"RA_OF_ASC_NODE":242.2326,"ARG_OF_PERICENTER":231.0625,"MEAN_ANOMALY":129.0173,"EPHEMERIS_TYPE":0,"NORAD_CAT_ID":46460,"ELEMENT_SET_NO":999,"REV_AT_EPOCH":32307,"BSTAR":0.00054726,"MEAN_MOTION_DOT":0.00069308,"MEAN_MOTION_DDOT":0},{"OBJECT_NAME":"JILIN-1 GAOFEN 2D","OBJECT_ID":"2021-086A","EPOCH":"2026-07-07T11:51:34.179840","CLASSIFICATION_TYPE":"U","MEAN_MOTION":15.10823811,"ECCENTRICITY":0.0034382,"INCLINATION":97.6495,"RA_OF_ASC_NODE":311.2036,"ARG_OF_PERICENTER":76.0511,"MEAN_ANOMALY":284.4538,"EPHEMERIS_TYPE":0,"NORAD_CAT_ID":49256,"ELEMENT_SET_NO":999,"REV_AT_EPOCH":26378,"BSTAR":0.00022289,"MEAN_MOTION_DOT":0.00003689,"MEAN_MOTION_DDOT":0},{"OBJECT_NAME":"JILIN-1 GAOFEN 2F","OBJECT_ID":"2021-097A","EPOCH":"2026-07-07T12:59:15.366048","CLASSIFICATION_TYPE":"U","MEAN_MOTION":15.07912271,"ECCENTRICITY":0.001942,"INCLINATION":97.6724,"RA_OF_ASC_NODE":314.6947,"ARG_OF_PERICENTER":154.0069,"MEAN_ANOMALY":206.2138,"EPHEMERIS_TYPE":0,"NORAD_CAT_ID":49338,"ELEMENT_SET_NO":999,"REV_AT_EPOCH":25938,"BSTAR":0.00018862,"MEAN_MOTION_DOT":0.00002842,"MEAN_MOTION_DDOT":0},{"OBJECT_NAME":"JILIN-1 GAOFEN 3D27","OBJECT_ID":"2022-048B","EPOCH":"2026-07-07T12:17:35.757888","CLASSIFICATION_TYPE":"U","MEAN_MOTION":15.80997385,"ECCENTRICITY":0.0004351,"INCLINATION":97.5721,"RA_OF_ASC_NODE":304.3745,"ARG_OF_PERICENTER":263.6836,"MEAN_ANOMALY":96.3936,"EPHEMERIS_TYPE":0,"NORAD_CAT_ID":52444,"ELEMENT_SET_NO":999,"REV_AT_EPOCH":23268,"BSTAR":0.00065653,"MEAN_MOTION_DOT":0.00128615,"MEAN_MOTION_DDOT":0},{"OBJECT_NAME":"JILIN-1 GAOFEN 3D28","OBJECT_ID":"2022-048C","EPOCH":"2026-07-07T12:41:04.276608","CLASSIFICATION_TYPE":"U","MEAN_MOTION":15.85348497,"ECCENTRICITY":0.0003904,"INCLINATION":97.5649,"RA_OF_ASC_NODE":304.6424,"ARG_OF_PERICENTER":253.6547,"MEAN_ANOMALY":106.4293,"EPHEMERIS_TYPE":0,"NORAD_CAT_ID":52445,"ELEMENT_SET_NO":999,"REV_AT_EPOCH":23274,"BSTAR":0.00071277,"MEAN_MOTION_DOT":0.00171982,"MEAN_MOTION_DDOT":0},{"OBJECT_NAME":"JILIN-1 GAOFEN 3D29","OBJECT_ID":"2022-048D","EPOCH":"2026-07-07T13:28:24.446784","CLASSIFICATION_TYPE":"U","MEAN_MOTION":15.81198771,"ECCENTRICITY":0.0003784,"INCLINATION":97.5722,"RA_OF_ASC_NODE":304.7917,"ARG_OF_PERICENTER":241.1476,"MEAN_ANOMALY":118.9412,"EPHEMERIS_TYPE":0,"NORAD_CAT_ID":52446,"ELEMENT_SET_NO":999,"REV_AT_EPOCH":23271,"BSTAR":0.00066695,"MEAN_MOTION_DOT":0.00131899,"MEAN_MOTION_DDOT":0},{"OBJECT_NAME":"JILIN-1 GAOFEN 3D31","OBJECT_ID":"2022-048F","EPOCH":"2026-07-07T12:15:53.510400","CLASSIFICATION_TYPE":"U","MEAN_MOTION":15.90135142,"ECCENTRICITY":0.0004763,"INCLINATION":97.571,"RA_OF_ASC_NODE":305.9654,"ARG_OF_PERICENTER":247.5085,"MEAN_ANOMALY":112.5683,"EPHEMERIS_TYPE":0,"NORAD_CAT_ID":52448,"ELEMENT_SET_NO":999,"REV_AT_EPOCH":23280,"BSTAR":0.00072269,"MEAN_MOTION_DOT":0.00215865,"MEAN_MOTION_DDOT":0.000019135},{"OBJECT_NAME":"JILIN-1 GAOFEN 03D09","OBJECT_ID":"2022-098B","EPOCH":"2026-07-07T12:10:19.696224","CLASSIFICATION_TYPE":"U","MEAN_MOTION":15.69328523,"ECCENTRICITY":0.0002849,"INCLINATION":97.5614,"RA_OF_ASC_NODE":319.7453,"ARG_OF_PERICENTER":258.2598,"MEAN_ANOMALY":101.8343,"EPHEMERIS_TYPE":0,"NORAD_CAT_ID":53445,"ELEMENT_SET_NO":999,"REV_AT_EPOCH":21781,"BSTAR":0.00052725,"MEAN_MOTION_DOT":0.00061774,"MEAN_MOTION_DDOT":0},{"OBJECT_NAME":"JILIN-1 GAOFEN 03D43","OBJECT_ID":"2022-098E","EPOCH":"2026-07-07T13:33:03.529152","CLASSIFICATION_TYPE":"U","MEAN_MOTION":15.72888263,"ECCENTRICITY":0.0003182,"INCLINATION":97.5599,"RA_OF_ASC_NODE":320.9249,"ARG_OF_PERICENTER":249.9064,"MEAN_ANOMALY":110.1857,"EPHEMERIS_TYPE":0,"NORAD_CAT_ID":53448,"ELEMENT_SET_NO":999,"REV_AT_EPOCH":21789,"BSTAR":0.00052269,"MEAN_MOTION_DOT":0.00071129,"MEAN_MOTION_DDOT":0},{"OBJECT_NAME":"JILIN-1 GAOFEN 03D08","OBJECT_ID":"2022-155A","EPOCH":"2026-07-07T13:16:27.775200","CLASSIFICATION_TYPE":"U","MEAN_MOTION":15.66826979,"ECCENTRICITY":0.000382,"INCLINATION":97.6226,"RA_OF_ASC_NODE":335.6146,"ARG_OF_PERICENTER":255.3484,"MEAN_ANOMALY":104.7352,"EPHEMERIS_TYPE":0,"NORAD_CAT_ID":54251,"ELEMENT_SET_NO":999,"REV_AT_EPOCH":20300,"BSTAR":0.00043173,"MEAN_MOTION_DOT":0.00045588,"MEAN_MOTION_DDOT":0}]}
