JILIN-1 GAOFEN 3A       
1 44312U 19032C   26188.48308866  .00007222  00000+0  23095-3 0  9991
2 44312  44.9744 245.2004 0004743  48.8388 311.2906 15.33088366390953
JILIN-1 GAOFEN 2A       
1 44777U 19075A   26188.47854875  .00009690  00000+0  24591-3 0  9991
2 44777  97.4957 272.7498 0005948  23.4498 336.7018 15.39870856368004
JILIN-1 GAOFEN 2B       
1 44836U 19086A   26188.47818160  .00004471  00000+0  20475-3 0  9995
2 44836  97.4871 260.3439 0012670 244.9573 115.0347 15.20942232363575
JILIN-1 GAOFEN 3E       
1 46457U 20065D   26188.49224867  .00057399  00000+0  55056-3 0  9992
2 46457  97.2219 241.6053 0011395  95.9891 264.2668 15.66383825322939
JILIN-1 GAOFEN 3F       
1 46458U 20065E   26188.49102522  .00047476  00000+0  51588-3 0  9997
2 46458  97.2176 238.8369 0012811  83.3563 276.9153 15.63243961322876
JILIN-1 GAOFEN 3G       
1 46459U 20065F   26188.50232517  .00092097  00000+0  60325-3 0  9996
2 46459  97.2232 246.0173 0004743 319.3212  40.7699 15.75498564323138
JILIN-1 GAOFEN 3H       
1 46460U 20065G   26188.52383544  .00069308  00000+0  54726-3 0  9994
2 46460  97.2185 242.2326 0005223 231.0625 129.0173 15.71172052323075
JILIN-1 GAOFEN 2D       
1 49256U 21086A   26188.49414560  .00003689  00000+0  22289-3 0  9992
2 49256  97.6495 311.2036 0034382  76.0511 284.4538 15.10823811263784
JILIN-1 GAOFEN 2F       
1 49338U 21097A   26188.54115007  .00002842  00000+0  18862-3 0  9997
2 49338  97.6724 314.6947 0019420 154.0069 206.2138 15.07912271259383
JILIN-1 GAOFEN 3D27     
1 52444U 22048B   26188.51221942  .00128615  00000+0  65653-3 0  9996
2 52444  97.5721 304.3745 0004351 263.6836  96.3936 15.80997385232687
JILIN-1 GAOFEN 3D28     
1 52445U 22048C   26188.52852172  .00171982  00000+0  71277-3 0  9997
2 52445  97.5649 304.6424 0003904 253.6547 106.4293 15.85348497232740
JILIN-1 GAOFEN 3D29     
1 52446U 22048D   26188.56139406  .00131899  00000+0  66695-3 0  9991
2 52446  97.5722 304.7917 0003784 241.1476 118.9412 15.81198771232712
JILIN-1 GAOFEN 3D31     
1 52448U 22048F   26188.51103600  .00215865  19135-4  72269-3 0  9999
2 52448  97.5710 305.9654 0004763 247.5085 112.5683 15.90135142232809
JILIN-1 GAOFEN 03D09    
1 53445U 22098B   26188.50717241  .00061774  00000+0  52725-3 0  9992
2 53445  97.5614 319.7453 0002849 258.2598 101.8343 15.69328523217812
JILIN-1 GAOFEN 03D43    
1 53448U 22098E   26188.56462418  .00071129  00000+0  52269-3 0  9992
2 53448  97.5599 320.9249 0003182 249.9064 110.1857 15.72888263217897
JILIN-1 GAOFEN 03D08    
1 54251U 22155A   26188.55309925  .00045588  00000+0  43173-3 0  9995
2 54251  97.6226 335.6146 0003820 255.3484 104.7352 15.66826979203009
